NORAD_CAT_ID,OBJECT_NAME,OBJECT_TYPE,EPOCH,MEAN_MOTION,ECCENTRICITY,INCLINATION,RA_OF_ASC_NODE,ARG_OF_PERICENTER,MEAN_ANOMALY,BSTAR,MEAN_MOTION_DOT,MEAN_MOTION_DDOT,TLE_LINE0,TLE_LINE1,TLE_LINE2,SEMIMAJOR_AXIS,PERIOD,APOGEE,PERIGEE,DECAYED
53533.0,STARLINK-4493,PAYLOAD,2023-01-01 22:54:23,15.0881063,0.0002203,53.2163,253.8442,58.6899,301.4308,3.1741e-05,2.17e-06,0.0,0 STARLINK-4493,1 53533U 22101G   23001.95444341  .00000217  00000-0  31741-4 0  9995,2 53533  53.2163 253.8442 0002203  58.6899 301.4308 15.08810630 20633,6917.97,95.439,541.359,538.311,0.0
53533.0,STARLINK-4493,PAYLOAD,2023-01-02 10:02:06,15.08816084,0.000194,53.2179,251.7618,57.4672,302.6507,4.0154e-05,3.51e-06,0.0,0 STARLINK-4493,1 53533U 22101G   23002.41813147  .00000351  00000-0  40154-4 0  9998,2 53533  53.2179 251.7618 0001940  57.4672 302.6507 15.08816084 20706,6917.953,95.439,541.161,538.476,0.0
53533.0,STARLINK-4493,PAYLOAD,2023-01-02 22:45:12,15.08824263,0.000198,53.2174,249.3836,49.515,310.6014,0.00035785,5.409e-05,0.0,0 STARLINK-4493,1 53533U 22101G   23002.94805857  .00005409  00000-0  35785-3 0  9997,2 53533  53.2174 249.3836 0001980  49.5150 310.6014 15.08824263 20781,6917.928000000001,95.439,541.163,538.424,0.0
53533.0,STARLINK-4493,PAYLOAD,2023-01-03 01:55:58,15.08828177,0.0001834,53.2173,248.7885,56.8495,303.2673,0.00050151,7.7e-05,0.0,0 STARLINK-4493,1 53533U 22101G   23003.08053948  .00007700  00000-0  50151-3 0  9999,2 53533  53.2173 248.7885 0001834  56.8495 303.2673 15.08828177 20808,6917.917,95.438,541.05,538.513,0.0
53533.0,STARLINK-4493,PAYLOAD,2023-01-03 13:03:40,15.08843488,0.0001916,53.2168,246.7079,55.0777,305.0395,0.00071775,0.00011155,0.0,0 STARLINK-4493,1 53533U 22101G   23003.54421937  .00011155  00000-0  71775-3 0  9991,2 53533  53.2168 246.7079 0001916  55.0777 305.0395 15.08843488 20870,6917.87,95.437,541.06,538.409,0.0
53533.0,STARLINK-4493,PAYLOAD,2023-01-03 17:49:49,15.08855774,0.0001936,53.2165,245.8158,56.0949,304.0227,0.00093336,0.00014604,0.0,0 STARLINK-4493,1 53533U 22101G   23003.74293710  .00014604  00000-0  93336-3 0  9998,2 53533  53.2165 245.8158 0001936  56.0949 304.0227 15.08855774 20907,6917.831999999999,95.437,541.036,538.3580000000002,0.0
53533.0,STARLINK-4493,PAYLOAD,2023-01-03 22:35:58,15.08858705,0.0001940999999999,53.2167,244.9239,55.6872,304.4304,0.00081404,0.00012698,0.0,0 STARLINK-4493,1 53533U 22101G   23003.94165499  .00012698  00000-0  81404-3 0  9996,2 53533  53.2167 244.9239 0001941  55.6872 304.4304 15.08858705 20935,6917.823,95.436,541.031,538.345,0.0
53533.0,STARLINK-4493,PAYLOAD,2023-01-04 22:26:45,15.0886359,0.0001999,53.2165,240.4638,56.5126,303.6057,0.00044336,6.78e-05,0.0,0 STARLINK-4493,1 53533U 22101G   23004.93524387  .00006780  00000-0  44336-3 0  9999,2 53533  53.2165 240.4638 0001999  56.5126 303.6057 15.08863590 21083,6917.808000000001,95.436,541.056,538.29,0.0
53533.0,STARLINK-4493,PAYLOAD,2023-01-05 01:37:31,15.08871878,0.000199,53.2163,239.8689,57.5147,302.6037,0.00061715,9.556e-05,0.0,0 STARLINK-4493,1 53533U 22101G   23005.06772033  .00009556  00000-0  61715-3 0  9991,2 53533  53.2163 239.8689 0001990  57.5147 302.6037 15.08871878 21102,6917.783,95.436,541.025,538.271,0.0
53533.0,STARLINK-4493,PAYLOAD,2023-01-05 07:59:03,15.08867246,0.0002021999999999,53.2166,238.6779,54.3317,305.7863,0.0003793999999999,5.76e-05,0.0,0 STARLINK-4493,1 53533U 22101G   23005.33267741  .00005760  00000-0  37940-3 0  9992,2 53533  53.2166 238.6779 0002022  54.3317 305.7863 15.08867246 21142,6917.797,95.436,541.061,538.263,0.0
53533.0,STARLINK-4493,PAYLOAD,2023-01-05 14:20:35,15.08866443,0.0002017,53.2162,237.4886,56.6337,303.4848,0.00029681,4.442e-05,0.0,0 STARLINK-4493,1 53533U 22101G   23005.59763340  .00004442  00000-0  29681-3 0  9995,2 53533  53.2162 237.4886 0002017  56.6337 303.4848 15.08866443 21185,6917.8,95.436,541.06,538.269,0.0
53533.0,STARLINK-4493,PAYLOAD,2023-01-05 15:55:58,15.08864631,0.0002051,53.2166,237.191,56.3117,303.8071,0.00021407,3.123e-05,0.0,0 STARLINK-4493,1 53533U 22101G   23005.66387283  .00003123  00000-0  21407-3 0  9994,2 53533  53.2166 237.1910 0002051  56.3117 303.8071 15.08864631 21195,6917.805,95.436,541.089,538.251,0.0
53533.0,STARLINK-4493,PAYLOAD,2023-01-06 07:49:50,15.08844188,0.0001326,53.2157,234.2204,31.6731,328.4341,-0.00013212,-2.39e-05,0.0,0 STARLINK-4493,1 53533U 22101G   23006.32627406 -.00002390  00000-0 -13212-3 0  9994,2 53533  53.2157 234.2204 0001326  31.6731 328.4341 15.08844188 21290,6917.868,95.437,540.65,538.815,0.0
53533.0,STARLINK-4493,PAYLOAD,2023-01-06 17:22:09,15.08836076,0.0001824,53.2157,232.4351,56.6012,303.5154,-0.00029069,-4.911e-05,0.0,0 STARLINK-4493,1 53533U 22101G   23006.72372204 -.00004911  00000-0 -29069-3 0  9999,2 53533  53.2157 232.4351 0001824  56.6012 303.5154 15.08836076 21355,6917.892,95.438,541.019,538.496,0.0
53533.0,STARLINK-4493,PAYLOAD,2023-01-06 23:43:42,15.08836581,0.0001948,53.2161,231.2444,54.6058,305.5116,-0.0002109,-3.643e-05,0.0,0 STARLINK-4493,1 53533U 22101G   23006.98868275 -.00003643  00000-0 -21090-3 0  9992,2 53533  53.2161 231.2444 0001948  54.6058 305.5116 15.08836581 21390,6917.891,95.438,541.1030000000002,538.408,0.0
53533.0,STARLINK-4493,PAYLOAD,2023-01-07 15:37:33,15.08835563,0.0001885,53.2158,228.2707,53.0797,307.0368,7.9544e-08,-2.87e-06,0.0,0 STARLINK-4493,1 53533U 22101G   23007.65108513 -.00000287  00000-0  79544-7 0  9990,2 53533  53.2158 228.2707 0001885  53.0797 307.0368 15.08835563 21493,6917.894,95.438,541.063,538.455,0.0
53533.0,STARLINK-4493,PAYLOAD,2023-01-07 23:34:30,15.0882707,0.000181,53.2159,226.7844,55.8332,304.2831,-6.9828e-05,-1.399e-05,0.0,0 STARLINK-4493,1 53533U 22101G   23007.98229201 -.00001399  00000-0 -69828-4 0  9991,2 53533  53.2159 226.7844 0001810  55.8332 304.2831 15.08827070 21546,6917.92,95.438,541.0369999999998,538.533,0.0
53533.0,STARLINK-4493,PAYLOAD,2023-01-08 13:52:58,15.08828266,0.0001757,53.216,224.1079,54.8187,305.2969,0.0001581,2.228e-05,0.0,0 STARLINK-4493,1 53533U 22101G   23008.57845733  .00002228  00000-0  15810-3 0  9992,2 53533  53.2160 224.1079 0001757  54.8187 305.2969 15.08828266 21638,6917.916,95.438,540.997,538.566,0.0
53533.0,STARLINK-4493,PAYLOAD,2023-01-08 23:25:17,15.08838004,0.0001773,53.2158,222.3239,54.835,305.2808,0.0002051,2.977e-05,0.0,0 STARLINK-4493,1 53533U 22101G   23008.97589490  .00002977  00000-0  20510-3 0  9995,2 53533  53.2158 222.3239 0001773  54.8350 305.2808 15.08838004 21692,6917.886,95.438,540.9780000000002,538.525,0.0
53533.0,STARLINK-4493,PAYLOAD,2023-01-09 08:57:35,15.08843534,0.0001706,53.216,220.5402,54.0096,306.1054,0.00022624,3.315e-05,0.0,0 STARLINK-4493,1 53533U 22101G   23009.37333272  .00003315  00000-0  22624-3 0  9990,2 53533  53.2160 220.5402 0001706  54.0096 306.1054 15.08843534 21756,6917.87,95.437,540.915,538.554,0.0
53533.0,STARLINK-4493,PAYLOAD,2023-01-09 16:54:31,15.08848684,0.0001708,53.2158,219.0531,54.4303,305.6848,0.00030189,4.521e-05,0.0,0 STARLINK-4493,1 53533U 22101G   23009.70453031  .00004521  00000-0  30189-3 0  9998,2 53533  53.2158 219.0531 0001708  54.4303 305.6848 15.08848684 21808,6917.854,95.437,540.9,538.5369999999998,0.0
53533.0,STARLINK-4493,PAYLOAD,2023-01-10 08:48:22,15.08847289,0.0001808,53.2156,216.0799,54.3387,305.7773,0.00025197,3.725e-05,0.0,0 STARLINK-4493,1 53533U 22101G   23010.36693098  .00003725  00000-0  25197-3 0  9999,2 53533  53.2156 216.0799 0001808  54.3387 305.7773 15.08847289 21900,6917.858,95.437,540.974,538.472,0.0
53533.0,STARLINK-4493,PAYLOAD,2023-01-10 19:56:04,15.08848266,0.000178,53.2156,213.9982,54.9807,305.1352,0.00018182,2.607e-05,0.0,0 STARLINK-4493,1 53533U 22101G   23010.83060847  .00002607  00000-0  18182-3 0  9995,2 53533  53.2156 213.9982 0001780  54.9807 305.1352 15.08848266 21972,6917.855,95.437,540.952,538.489,0.0
53533.0,STARLINK-4493,PAYLOAD,2023-01-11 08:39:09,15.08842799,0.000174,53.214,211.6164,70.6138,289.5042,1.4412e-05,-5.9e-07,0.0,0 STARLINK-4493,1 53533U 22101G   23011.36052877 -.00000059  00000-0  14412-4 0  9991,2 53533  53.2140 211.6164 0001740  70.6138 289.5042 15.08842799 22056,6917.871999999999,95.437,540.941,538.533,0.0
53533.0,STARLINK-4493,PAYLOAD,2023-01-11 13:25:19,15.08834776,0.0001827,53.2151,210.7264,57.6944,302.4224,-0.00012574,-2.288e-05,0.0,0 STARLINK-4493,1 53533U 22101G   23011.55925397 -.00002288  00000-0 -12574-3 0  9991,2 53533  53.2151 210.7264 0001827  57.6944 302.4224 15.08834776 22081,6917.896,95.438,541.025,538.497,0.0
53533.0,STARLINK-4493,PAYLOAD,2023-01-11 15:00:42,15.08836193,0.0001803,53.2162,210.4294,57.7211,302.3955,-8.198e-05,-1.592e-05,0.0,0 STARLINK-4493,1 53533U 22101G   23011.62549756 -.00001592  00000-0 -81980-4 0  9995,2 53533  53.2162 210.4294 0001803  57.7211 302.3955 15.08836193 22091,6917.892,95.438,541.004,538.51,0.0
53533.0,STARLINK-4493,PAYLOAD,2023-01-12 19:37:39,15.08837362,0.0001692,53.2167,205.0778,57.481,302.6345,2.6297e-05,1.3e-06,0.0,0 STARLINK-4493,1 53533U 22101G   23012.81781595  .00000130  00000-0  26297-4 0  9991,2 53533  53.2167 205.0778 0001692  57.4810 302.6345 15.08837362 22276,6917.888000000001,95.438,540.924,538.5830000000002,0.0
53533.0,STARLINK-4493,PAYLOAD,2023-01-13 05:09:57,15.0885515,0.0001692,53.2165,203.2936,61.4933,298.6229,-0.00018647,-3.256e-05,0.0,0 STARLINK-4493,1 53533U 22101G   23013.21524982 -.00003256  00000-0 -18647-3 0  9994,2 53533  53.2165 203.2936 0001692  61.4933 298.6229 15.08855150 22338,6917.834,95.437,540.87,538.529,0.0
53533.0,STARLINK-4493,PAYLOAD,2023-01-13 13:06:54,15.08833255,0.0001724,53.2163,201.8066,61.0985,299.018,0.00013706,1.894e-05,0.0,0 STARLINK-4493,1 53533U 22101G   23013.54645877  .00001894  00000-0  13706-3 0  9992,2 53533  53.2163 201.8066 0001724  61.0985 299.0180 15.08833255 22381,6917.901,95.438,540.9590000000001,538.573,0.0
